GLOBALSTAR M001         
1 25162U 98008A   25234.16518979 -.00000085  00000+0  90347-4 0  9993
2 25162  52.0024 141.1893 0002067  38.1140 111.0682 12.38215771251880
GLOBALSTAR M004         
1 25163U 98008B   25234.47013201 -.00000101  00000+0  15209-4 0  9999
2 25163  51.9983 211.9380 0003315  76.1490  76.4122 12.63400727270066
GLOBALSTAR M002         
1 25164U 98008C   25232.79433198 -.00000053  00000+0  46357-3 0  9997
2 25164  52.0011  78.2120 0000627 289.3361  70.7392 11.61511733191576
GLOBALSTAR M003         
1 25165U 98008D   25232.79518041 -.00000164  00000+0 -79247-3 0  9997
2 25165  51.9997 349.5871 0008660  65.0498  95.3488 12.12065785241056
GLOBALSTAR M014         
1 25306U 98023A   25234.50944359 -.00000082  00000+0 -80942-4 0  9991
2 25306  51.9873 355.7423 0001640 114.1465 325.9471 11.65481339198902
GLOBALSTAR M006         
1 25307U 98023B   25232.87757926 -.00000095  00000+0 -39084-3 0  9996
2 25307  51.9945  54.7570 0002490 210.5601 292.5276 11.58175007224321
GLOBALSTAR M015         
1 25308U 98023C   25232.54713332 -.00000092  00000+0 -43156-3 0  9996
2 25308  51.9810 157.0019 0012053 189.6762 340.9388 11.48860689201477
GLOBALSTAR M008         
1 25309U 98023D   25232.86746689 -.00000107  00000+0 -82281-4 0  9993
2 25309  51.9997  10.5290 0002027 324.2639 202.9609 12.36071356245843
